{"type": "FeatureCollection", "features": [ {"type": "Feature", "properties": {"norad_id": 66479, "name": "STARLINK-35581", "group": "last-30-days", "lat": -34.55675555612882, "lon": 55.10456961597077, "alt_km": 417.2827817927064, "timestamp": "2025-12-07T07:31:35.085530+00:00", "meta": {"OBJECT_NAME": "STARLINK-35581", "OBJECT_ID": "2025-262Z", "EPOCH": "2025-12-07T00:00:02.000160", "MEAN_MOTION": 15.50641592, "ECCENTRICITY": 0.00014723, "INCLINATION": 43.0008, "RA_OF_ASC_NODE": 104.5933, "ARG_OF_PERICENTER": 266.1407, "MEAN_ANOMALY": 85.0627, "EPHEMERIS_TYPE": 0, "CLASSIFICATION_TYPE": "U", "NORAD_CAT_ID": 66479, "ELEMENT_SET_NO": 999, "REV_AT_EPOCH": 471, "BSTAR": -0.0025305179, "MEAN_MOTION_DOT": -0.0014638, "MEAN_MOTION_DDOT": 0}, "tle": {"line1": "1 66479U 25262Z   25341.00002315 -.00146380  00000+0 -25305-2 0  9995", "line2": "2 66479  43.0008 104.5933 0001472 266.1407  85.0627 15.50641592  4712"}}, "geometry": {"type": "Point", "coordinates": [55.10456961597077, -34.55675555612882]}}, {"type": "Feature", "properties": {"norad_id": 66480, "name": "STARLINK-35670", "group": "last-30-days", "lat": -31.76953425180884, "lon": 61.095918646808485, "alt_km": 417.11664682489754, "timestamp": "2025-12-07T07:31:35.085543+00:00", "meta": {"OBJECT_NAME": "STARLINK-35670", "OBJECT_ID": "2025-262AA", "EPOCH": "2025-12-07T00:00:02.000160", "MEAN_MOTION": 15.50661286, "ECCENTRICITY": 0.00015373, "INCLINATION": 43.0008, "RA_OF_ASC_NODE": 104.5795, "ARG_OF_PERICENTER": 268.5291, "MEAN_ANOMALY": 88.4141, "EPHEMERIS_TYPE": 0, "CLASSIFICATION_TYPE": "U", "NORAD_CAT_ID": 66480, "ELEMENT_SET_NO": 999, "REV_AT_EPOCH": 471, "BSTAR": -0.0030018119, "MEAN_MOTION_DOT": -0.00173116, "MEAN_MOTION_DDOT": 0}, "tle": {"line1": "1 66480U 25262AA  25341.00002315 -.00173116  00000+0 -30018-2 0  9991", "line2": "2 66480  43.0008 104.5795 0001537 268.5291  88.4141 15.50661286  4719"}}, "geometry": {"type": "Point", "coordinates": [61.095918646808485, -31.76953425180884]}}, {"type": "Feature", "properties": {"norad_id": 66481, "name": "STARLINK-35698", "group": "last-30-days", "lat": -30.77688410215731, "lon": 63.01342763443757, "alt_km": 417.04273535473203, "timestamp": "2025-12-07T07:31:35.085555+00:00", "meta": {"OBJECT_NAME": "STARLINK-35698", "OBJECT_ID": "2025-262AB", "EPOCH": "2025-12-07T00:00:02.000160", "MEAN_MOTION": 15.50657939, "ECCENTRICITY": 0.00016482, "INCLINATION": 43.0008, "RA_OF_ASC_NODE": 104.5738, "ARG_OF_PERICENTER": 267.8496, "MEAN_ANOMALY": 91.0189, "EPHEMERIS_TYPE": 0, "CLASSIFICATION_TYPE": "U", "NORAD_CAT_ID": 66481, "ELEMENT_SET_NO": 999, "REV_AT_EPOCH": 471, "BSTAR": -0.0030293517, "MEAN_MOTION_DOT": -0.00174648, "MEAN_MOTION_DDOT": 0}, "tle": {"line1": "1 66481U 25262AB  25341.00002315 -.00174648  00000+0 -30294-2 0  9999", "line2": "2 66481  43.0008 104.5738 0001648 267.8496  91.0189 15.50657939  4711"}}, "geometry": {"type": "Point", "coordinates": [63.01342763443757, -30.77688410215731]}}, {"type": "Feature", "properties": {"norad_id": 66482, "name": "STARLINK-35648", "group": "last-30-days", "lat": -29.709772788341372, "lon": 64.97517670761707, "alt_km": 417.1717032935867, "timestamp": "2025-12-07T07:31:35.085567+00:00", "meta": {"OBJECT_NAME": "STARLINK-35648", "OBJECT_ID": "2025-262AC", "EPOCH": "2025-12-07T00:00:02.000160", "MEAN_MOTION": 15.50703598, "ECCENTRICITY": 0.00015103, "INCLINATION": 43.0007, "RA_OF_ASC_NODE": 104.5683, "ARG_OF_PERICENTER": 266.6, "MEAN_ANOMALY": 94.2685, "EPHEMERIS_TYPE": 0, "CLASSIFICATION_TYPE": "U", "NORAD_CAT_ID": 66482, "ELEMENT_SET_NO": 999, "REV_AT_EPOCH": 456, "BSTAR": -0.0050683142, "MEAN_MOTION_DOT": -0.00288276, "MEAN_MOTION_DDOT": 0}, "tle": {"line1": "1 66482U 25262AC  25341.00002315 -.00288276  00000+0 -50683-2 0  9997", "line2": "2 66482  43.0007 104.5683 0001510 266.6000  94.2685 15.50703598  4568"}}, "geometry": {"type": "Point", "coordinates": [64.97517670761707, -29.709772788341372]}}, {"type": "Feature", "properties": {"norad_id": 66483, "name": "STARLINK-35654", "group": "last-30-days", "lat": -28.718398136836676, "lon": 66.71613672526314, "alt_km": 417.03018377147146, "timestamp": "2025-12-07T07:31:35.085577+00:00", "meta": {"OBJECT_NAME": "STARLINK-35654", "OBJECT_ID": "2025-262AD", "EPOCH": "2025-12-07T00:00:02.000160", "MEAN_MOTION": 15.50638045, "ECCENTRICITY": 0.00014725, "INCLINATION": 43.0008, "RA_OF_ASC_NODE": 104.5629, "ARG_OF_PERICENTER": 268.2793, "MEAN_ANOMALY": 94.4282, "EPHEMERIS_TYPE": 0, "CLASSIFICATION_TYPE": "U", "NORAD_CAT_ID": 66483, "ELEMENT_SET_NO": 999, "REV_AT_EPOCH": 471, "BSTAR": -0.002394649, "MEAN_MOTION_DOT": -0.00138657, "MEAN_MOTION_DDOT": 0}, "tle": {"line1": "1 66483U 25262AD  25341.00002315 -.00138657  00000+0 -23946-2 0  9997", "line2": "2 66483  43.0008 104.5629 0001472 268.2793  94.4282 15.50638045  4710"}}, "geometry": {"type": "Point", "coordinates": [66.71613672526314, -28.718398136836676]}}, {"type": "Feature", "properties": {"norad_id": 66484, "name": "STARLINK-35371", "group": "last-30-days", "lat": -27.64895494947348, "lon": 68.51820873595382, "alt_km": 416.8846443450384, "timestamp": "2025-12-07T07:31:35.085589+00:00", "meta": {"OBJECT_NAME": "STARLINK-35371", "OBJECT_ID": "2025-262AE", "EPOCH": "2025-12-07T00:00:02.000160", "MEAN_MOTION": 15.50644159, "ECCENTRICITY": 0.00016357, "INCLINATION": 43.0007, "RA_OF_ASC_NODE": 104.5593, "ARG_OF_PERICENTER": 269.7453, "MEAN_ANOMALY": 94.8767, "EPHEMERIS_TYPE": 0, "CLASSIFICATION_TYPE": "U", "NORAD_CAT_ID": 66484, "ELEMENT_SET_NO": 999, "REV_AT_EPOCH": 471, "BSTAR": -0.002557744, "MEAN_MOTION_DOT": -0.00147938, "MEAN_MOTION_DDOT": 0}, "tle": {"line1": "1 66484U 25262AE  25341.00002315 -.00147938  00000+0 -25577-2 0  9992", "line2": "2 66484  43.0007 104.5593 0001635 269.7453  94.8767 15.50644159  4715"}}, "geometry": {"type": "Point", "coordinates": [68.51820873595382, -27.64895494947348]}}, {"type": "Feature", "properties": {"norad_id": 66485, "name": "STARLINK-34774", "group": "last-30-days", "lat": -6.674995697655337, "lon": -15.862666234642393, "alt_km": 403.5189157142104, "timestamp": "2025-12-07T07:31:35.085599+00:00", "meta": {"OBJECT_NAME": "STARLINK-34774", "OBJECT_ID": "2025-263A", "EPOCH": "2025-12-07T00:00:02.000160", "MEAN_MOTION": 15.56101443, "ECCENTRICITY": 0.0001542, "INCLINATION": 42.9999, "RA_OF_ASC_NODE": 158.7704, "ARG_OF_PERICENTER": 268.196, "MEAN_ANOMALY": 323.5877, "EPHEMERIS_TYPE": 0, "CLASSIFICATION_TYPE": "U", "NORAD_CAT_ID": 66485, "ELEMENT_SET_NO": 999, "REV_AT_EPOCH": 471, "BSTAR": -0.031906652, "MEAN_MOTION_DOT": -0.02042769, "MEAN_MOTION_DDOT": 0}, "tle": {"line1": "1 66485U 25263A   25341.00002315 -.02042769  00000+0 -31907-1 0  9995", "line2": "2 66485  42.9999 158.7704 0001542 268.1960 323.5877 15.56101443  4716"}}, "geometry": {"type": "Point", "coordinates": [-15.862666234642393, -6.674995697655337]}}, {"type": "Feature", "properties": {"norad_id": 66486, "name": "STARLINK-34844", "group": "last-30-days", "lat": -7.96983942580792, "lon": -14.442212735267363, "alt_km": 403.6004847031545, "timestamp": "2025-12-07T07:31:35.085609+00:00", "meta": {"OBJECT_NAME": "STARLINK-34844", "OBJECT_ID": "2025-263B", "EPOCH": "2025-12-07T00:00:02.000160", "MEAN_MOTION": 15.56103092, "ECCENTRICITY": 0.00014968, "INCLINATION": 42.9998, "RA_OF_ASC_NODE": 158.7646, "ARG_OF_PERICENTER": 266.715, "MEAN_ANOMALY": 326.985, "EPHEMERIS_TYPE": 0, "CLASSIFICATION_TYPE": "U", "NORAD_CAT_ID": 66486, "ELEMENT_SET_NO": 999, "REV_AT_EPOCH": 466, "BSTAR": -0.031940792, "MEAN_MOTION_DOT": -0.02044804, "MEAN_MOTION_DDOT": 0}, "tle": {"line1": "1 66486U 25263B   25341.00002315 -.02044804  00000+0 -31941-1 0  9996", "line2": "2 66486  42.9998 158.7646 0001496 266.7150 326.9850 15.56103092  4668"}}, "geometry": {"type": "Point", "coordinates": [-14.442212735267363, -7.96983942580792]}}, {"type": "Feature", "properties": {"norad_id": 66487, "name": "STARLINK-34733", "group": "last-30-days", "lat": -9.258632029128247, "lon": -13.012194296184434, "alt_km": 403.79520241136925, "timestamp": "2025-12-07T07:31:35.085619+00:00", "meta": {"OBJECT_NAME": "STARLINK-34733", "OBJECT_ID": "2025-263C", "EPOCH": "2025-12-07T00:00:02.000160", "MEAN_MOTION": 15.56105124, "ECCENTRICITY": 0.00014924, "INCLINATION": 42.9997, "RA_OF_ASC_NODE": 158.7606, "ARG_OF_PERICENTER": 270.6481, "MEAN_ANOMALY": 324.9672, "EPHEMERIS_TYPE": 0, "CLASSIFICATION_TYPE": "U", "NORAD_CAT_ID": 66487, "ELEMENT_SET_NO": 999, "REV_AT_EPOCH": 471, "BSTAR": -0.031979964, "MEAN_MOTION_DOT": -0.0204718, "MEAN_MOTION_DDOT": 0}, "tle": {"line1": "1 66487U 25263C   25341.00002315 -.02047180  00000+0 -31980-1 0  9990", "line2": "2 66487  42.9997 158.7606 0001492 270.6481 324.9672 15.56105124  4715"}}, "geometry": {"type": "Point", "coordinates": [-13.012194296184434, -9.258632029128247]}}, {"type": "Feature", "properties": {"norad_id": 66488, "name": "STARLINK-35515", "group": "last-30-days", "lat": -10.542820342454092, "lon": -11.571719567470202, "alt_km": 403.81495553343575, "timestamp": "2025-12-07T07:31:35.085632+00:00", "meta": {"OBJECT_NAME": "STARLINK-35515", "OBJECT_ID": "2025-263D", "EPOCH": "2025-12-07T00:00:02.000160", "MEAN_MOTION": 15.56105937, "ECCENTRICITY": 0.00014849, "INCLINATION": 42.9998, "RA_OF_ASC_NODE": 158.7553, "ARG_OF_PERICENTER": 266.9391, "MEAN_ANOMALY": 330.5933, "EPHEMERIS_TYPE": 0, "CLASSIFICATION_TYPE": "U", "NORAD_CAT_ID": 66488, "ELEMENT_SET_NO": 999, "REV_AT_EPOCH": 471, "BSTAR": -0.031993784, "MEAN_MOTION_DOT": -0.02048021, "MEAN_MOTION_DDOT": 0}, "tle": {"line1": "1 66488U 25263D   25341.00002315 -.02048021  00000+0 -31994-1 0  9991", "line2": "2 66488  42.9998 158.7553 0001484 266.9391 330.5933 15.56105937  4712"}}, "geometry": {"type": "Point", "coordinates": [-11.571719567470202, -10.542820342454092]}}]}